{
    "links": {
        "self": "http://www.neowsapp.com/rest/v1/neo/3843322?api_key=iIulBulltgU6a56xZRHN4H3l9WmuAYTsLGpBGhQ2"
    },
    "id": "3843322",
    "neo_reference_id": "3843322",
    "name": "(2019 NF7)",
    "designation": "2019 NF7",
    "nasa_jpl_url": "http://ssd.jpl.nasa.gov/sbdb.cgi?sstr=3843322",
    "absolute_magnitude_h": 28.1,
    "estimated_diameter": {
        "kilometers": {
            "estimated_diameter_min": 0.0063760979,
            "estimated_diameter_max": 0.0142573883
        },
        "meters": {
            "estimated_diameter_min": 6.3760978988,
            "estimated_diameter_max": 14.2573883328
        },
        "miles": {
            "estimated_diameter_min": 0.0039619223,
            "estimated_diameter_max": 0.0088591276
        },
        "feet": {
            "estimated_diameter_min": 20.9189570301,
            "estimated_diameter_max": 46.7762099378
        }
    },
    "is_potentially_hazardous_asteroid": false,
    "close_approach_data": [
        {
            "close_approach_date": "2013-09-09",
            "close_approach_date_full": "2013-Sep-09 08:39",
            "epoch_date_close_approach": 1378715940000,
            "relative_velocity": {
                "kilometers_per_second": "5.3728845381",
                "kilometers_per_hour": "19342.3843372299",
                "miles_per_hour": "12018.6054233193"
            },
            "miss_distance": {
                "astronomical": "1.9454441726",
                "lunar": "756.7777831414",
                "kilometers": "291034304.424872362",
                "miles": "180840331.0920361156"
            },
            "orbiting_body": "Juptr"
        },
        {
            "close_approach_date": "2019-07-09",
            "close_approach_date_full": "2019-Jul-09 05:07",
            "epoch_date_close_approach": 1562648820000,
            "relative_velocity": {
                "kilometers_per_second": "9.6891704904",
                "kilometers_per_hour": "34881.0137653676",
                "miles_per_hour": "21673.7054699308"
            },
            "miss_distance": {
                "astronomical": "0.0030318873",
                "lunar": "1.1794041597",
                "kilometers": "453563.882160051",
                "miles": "281831.5276726638"
            },
            "orbiting_body": "Moon"
        },
        {
            "close_approach_date": "2019-07-09",
            "close_approach_date_full": "2019-Jul-09 12:07",
            "epoch_date_close_approach": 1562674020000,
            "relative_velocity": {
                "kilometers_per_second": "9.3035472466",
                "kilometers_per_hour": "33492.7700878666",
                "miles_per_hour": "20811.1048359858"
            },
            "miss_distance": {
                "astronomical": "0.0025282592",
                "lunar": "0.9834928288",
                "kilometers": "378222.191127904",
                "miles": "235016.3717129152"
            },
            "orbiting_body": "Earth"
        }
    ],
    "orbital_data": {
        "orbit_id": "1",
        "orbit_determination_date": "2019-07-18 08:42:02",
        "first_observation_date": "2019-07-09",
        "last_observation_date": "2019-07-10",
        "data_arc_in_days": 1,
        "observations_used": 14,
        "orbit_uncertainty": "8",
        "minimum_orbit_intersection": ".00253779",
        "jupiter_tisserand_invariant": "3.192",
        "epoch_osculation": "2458674.5",
        "eccentricity": ".593891937534942",
        "semi_major_axis": "2.492729272102473",
        "inclination": "7.371016614354015",
        "ascending_node_longitude": "286.2128372680118",
        "orbital_period": "1437.510737442695",
        "perihelion_distance": "1.01231745494347",
        "perihelion_argument": "11.25378019072418",
        "aphelion_distance": "3.973141089261476",
        "perihelion_time": "2458682.809342028506",
        "mean_anomaly": "357.9190672790495",
        "mean_motion": ".2504329119937103",
        "equinox": "J2000",
        "orbit_class": {
            "orbit_class_type": "APO",
            "orbit_class_description": "Near-Earth asteroid orbits which cross the Earth’s orbit similar to that of 1862 Apollo",
            "orbit_class_range": "a (semi-major axis) > 1.0 AU; q (perihelion) < 1.017 AU"
        }
    },
    "is_sentry_object": false
}